[
  {
    "OBJECT_NAME": "STARLINK-3296",
    "OBJECT_ID": "21125N",
    "EPOCH": "2025-11-11T06:43:47.900928",
    "MEAN_MOTION": 15.09568222,
    "ECCENTRICITY": 8.15e-05,
    "INCLINATION": 53.2192,
    "RA_OF_ASC_NODE": 60.7569,
    "ARG_OF_PERICENTER": 42.2005,
    "MEAN_ANOMALY": 317.905,
    "EPHEMERIS_TYPE": 0,
    "CLASSIFICATION_TYPE": "U",
    "NORAD_CAT_ID": 50168,
    "ELEMENT_SET_NO": 999,
    "REV_AT_EPOCH": 21872,
    "BSTAR": 0.005888099999999999,
    "MEAN_MOTION_DOT": 0.00096621,
    "MEAN_MOTION_DDOT": 0.0,
    "TLE_LINE1": "1 50168U 21125N   25315.28041552  .00096621  00000+0  58881-2 0  9999",
    "TLE_LINE2": "2 50168  53.2192  60.7569 0000815  42.2005 317.9050 15.09568222218729",
    "COMMENT": "Grouped by shell and plane from TLE"
  },
  {
    "OBJECT_NAME": "STARLINK-3301",
    "OBJECT_ID": "21125P",
    "EPOCH": "2025-11-10T15:32:00.970080",
    "MEAN_MOTION": 15.08841438,
    "ECCENTRICITY": 0.0001587,
    "INCLINATION": 53.216,
    "RA_OF_ASC_NODE": 63.5233,
    "ARG_OF_PERICENTER": 94.8674,
    "MEAN_ANOMALY": 265.25,
    "EPHEMERIS_TYPE": 0,
    "CLASSIFICATION_TYPE": "U",
    "NORAD_CAT_ID": 50169,
    "ELEMENT_SET_NO": 999,
    "REV_AT_EPOCH": 21863,
    "BSTAR": 8.4861e-05,
    "MEAN_MOTION_DOT": 1.063e-05,
    "MEAN_MOTION_DDOT": 0.0,
    "TLE_LINE1": "1 50169U 21125P   25314.64723345  .00001063  00000+0  84861-4 0  9991",
    "TLE_LINE2": "2 50169  53.2160  63.5233 0001587  94.8674 265.2500 15.08841438218633",
    "COMMENT": "Grouped by shell and plane from TLE"
  },
  {
    "OBJECT_NAME": "STARLINK-3245",
    "OBJECT_ID": "21125Q",
    "EPOCH": "2025-11-11T06:22:18.210720",
    "MEAN_MOTION": 15.08827926,
    "ECCENTRICITY": 0.0001216,
    "INCLINATION": 53.2184,
    "RA_OF_ASC_NODE": 60.7491,
    "ARG_OF_PERICENTER": 84.3161,
    "MEAN_ANOMALY": 275.797,
    "EPHEMERIS_TYPE": 0,
    "CLASSIFICATION_TYPE": "U",
    "NORAD_CAT_ID": 50170,
    "ELEMENT_SET_NO": 999,
    "REV_AT_EPOCH": 21871,
    "BSTAR": 0.0,
    "MEAN_MOTION_DOT": -8.18e-06,
    "MEAN_MOTION_DDOT": 0.0,
    "TLE_LINE1": "1 50170U 21125Q   25315.26548855 -.00000818  00000+0 -33329-4 0  9995",
    "TLE_LINE2": "2 50170  53.2184  60.7491 0001216  84.3161 275.7970 15.08827926218712",
    "COMMENT": "Grouped by shell and plane from TLE"
  },
  {
    "OBJECT_NAME": "STARLINK-3286",
    "OBJECT_ID": "21125R",
    "EPOCH": "2025-11-11T00:21:56.527776",
    "MEAN_MOTION": 15.08850728,
    "ECCENTRICITY": 0.0001258,
    "INCLINATION": 53.2199,
    "RA_OF_ASC_NODE": 61.8686,
    "ARG_OF_PERICENTER": 86.2122,
    "MEAN_ANOMALY": 273.9014,
    "EPHEMERIS_TYPE": 0,
    "CLASSIFICATION_TYPE": "U",
    "NORAD_CAT_ID": 50171,
    "ELEMENT_SET_NO": 999,
    "REV_AT_EPOCH": 21868,
    "BSTAR": 3.3337e-05,
    "MEAN_MOTION_DOT": 2.43e-06,
    "MEAN_MOTION_DDOT": 0.0,
    "TLE_LINE1": "1 50171U 21125R   25315.01523759  .00000243  00000+0  33337-4 0  9994",
    "TLE_LINE2": "2 50171  53.2199  61.8686 0001258  86.2122 273.9014 15.08850728218682",
    "COMMENT": "Grouped by shell and plane from TLE"
  },
  {
    "OBJECT_NAME": "STARLINK-3287",
    "OBJECT_ID": "21125S",
    "EPOCH": "2025-11-11T06:11:41.332992",
    "MEAN_MOTION": 15.08839236,
    "ECCENTRICITY": 0.0001167,
    "INCLINATION": 53.2183,
    "RA_OF_ASC_NODE": 60.7792,
    "ARG_OF_PERICENTER": 97.6125,
    "MEAN_ANOMALY": 262.5,
    "EPHEMERIS_TYPE": 0,
    "CLASSIFICATION_TYPE": "U",
    "NORAD_CAT_ID": 50172,
    "ELEMENT_SET_NO": 999,
    "REV_AT_EPOCH": 21875,
    "BSTAR": 0.0,
    "MEAN_MOTION_DOT": -8.38e-06,
    "MEAN_MOTION_DDOT": 0.0,
    "TLE_LINE1": "1 50172U 21125S   25315.25811728 -.00000838  00000+0 -34555-4 0  9992",
    "TLE_LINE2": "2 50172  53.2183  60.7792 0001167  97.6125 262.5000 15.08839236218758",
    "COMMENT": "Grouped by shell and plane from TLE"
  },
  {
    "OBJECT_NAME": "STARLINK-3291",
    "OBJECT_ID": "21125V",
    "EPOCH": "2025-11-11T06:27:35.919072",
    "MEAN_MOTION": 15.08841627,
    "ECCENTRICITY": 0.0001476,
    "INCLINATION": 53.2181,
    "RA_OF_ASC_NODE": 60.7281,
    "ARG_OF_PERICENTER": 80.365,
    "MEAN_ANOMALY": 279.7509,
    "EPHEMERIS_TYPE": 0,
    "CLASSIFICATION_TYPE": "U",
    "NORAD_CAT_ID": 50175,
    "ELEMENT_SET_NO": 999,
    "REV_AT_EPOCH": 21872,
    "BSTAR": 5.593900000000001e-05,
    "MEAN_MOTION_DOT": 6.02e-06,
    "MEAN_MOTION_DDOT": 0.0,
    "TLE_LINE1": "1 50175U 21125V   25315.26916573  .00000602  00000+0  55939-4 0  9996",
    "TLE_LINE2": "2 50175  53.2181  60.7281 0001476  80.3650 279.7509 15.08841627218725",
    "COMMENT": "Grouped by shell and plane from TLE"
  },
  {
    "OBJECT_NAME": "STARLINK-3293",
    "OBJECT_ID": "21125W",
    "EPOCH": "2025-11-11T07:36:27.955008",
    "MEAN_MOTION": 15.08843725,
    "ECCENTRICITY": 0.0001516,
    "INCLINATION": 53.2155,
    "RA_OF_ASC_NODE": 60.5154,
    "ARG_OF_PERICENTER": 90.031,
    "MEAN_ANOMALY": 270.0856,
    "EPHEMERIS_TYPE": 0,
    "CLASSIFICATION_TYPE": "U",
    "NORAD_CAT_ID": 50176,
    "ELEMENT_SET_NO": 999,
    "REV_AT_EPOCH": 21877,
    "BSTAR": 5.2897000000000005e-05,
    "MEAN_MOTION_DOT": 5.54e-06,
    "MEAN_MOTION_DDOT": 0.0,
    "TLE_LINE1": "1 50176U 21125W   25315.31699022  .00000554  00000+0  52897-4 0  9996",
    "TLE_LINE2": "2 50176  53.2155  60.5154 0001516  90.0310 270.0856 15.08843725218775",
    "COMMENT": "Grouped by shell and plane from TLE"
  },
  {
    "OBJECT_NAME": "STARLINK-3282",
    "OBJECT_ID": "21125X",
    "EPOCH": "2025-11-11T06:16:59.394720",
    "MEAN_MOTION": 15.08831412,
    "ECCENTRICITY": 0.0001387,
    "INCLINATION": 53.2171,
    "RA_OF_ASC_NODE": 60.7626,
    "ARG_OF_PERICENTER": 80.6048,
    "MEAN_ANOMALY": 279.5101,
    "EPHEMERIS_TYPE": 0,
    "CLASSIFICATION_TYPE": "U",
    "NORAD_CAT_ID": 50177,
    "ELEMENT_SET_NO": 999,
    "REV_AT_EPOCH": 21872,
    "BSTAR": 0.00012056999999999999,
    "MEAN_MOTION_DOT": 1.631e-05,
    "MEAN_MOTION_DDOT": 0.0,
    "TLE_LINE1": "1 50177U 21125X   25315.26179855  .00001631  00000+0  12057-3 0  9998",
    "TLE_LINE2": "2 50177  53.2171  60.7626 0001387  80.6048 279.5101 15.08831412218721",
    "COMMENT": "Grouped by shell and plane from TLE"
  },
  {
    "OBJECT_NAME": "STARLINK-3283",
    "OBJECT_ID": "21125Z",
    "EPOCH": "2025-11-11T06:06:24.899904",
    "MEAN_MOTION": 15.08828441,
    "ECCENTRICITY": 0.0001512,
    "INCLINATION": 53.217,
    "RA_OF_ASC_NODE": 60.7959,
    "ARG_OF_PERICENTER": 89.2711,
    "MEAN_ANOMALY": 270.8454,
    "EPHEMERIS_TYPE": 0,
    "CLASSIFICATION_TYPE": "U",
    "NORAD_CAT_ID": 50179,
    "ELEMENT_SET_NO": 999,
    "REV_AT_EPOCH": 21872,
    "BSTAR": 5.2563000000000005e-05,
    "MEAN_MOTION_DOT": 5.48e-06,
    "MEAN_MOTION_DDOT": 0.0,
    "TLE_LINE1": "1 50179U 21125Z   25315.25445486  .00000548  00000+0  52563-4 0  9998",
    "TLE_LINE2": "2 50179  53.2170  60.7959 0001512  89.2711 270.8454 15.08828441218726",
    "COMMENT": "Grouped by shell and plane from TLE"
  },
  {
    "OBJECT_NAME": "STARLINK-3265",
    "OBJECT_ID": "21125AA",
    "EPOCH": "2025-11-11T07:21:57.274560",
    "MEAN_MOTION": 15.08834976,
    "ECCENTRICITY": 0.0002008,
    "INCLINATION": 53.2135,
    "RA_OF_ASC_NODE": 60.571,
    "ARG_OF_PERICENTER": 87.7076,
    "MEAN_ANOMALY": 272.4146,
    "EPHEMERIS_TYPE": 0,
    "CLASSIFICATION_TYPE": "U",
    "NORAD_CAT_ID": 50180,
    "ELEMENT_SET_NO": 999,
    "REV_AT_EPOCH": 21877,
    "BSTAR": 0.00021332000000000002,
    "MEAN_MOTION_DOT": 3.108e-05,
    "MEAN_MOTION_DDOT": 0.0,
    "TLE_LINE1": "1 50180U 21125AA  25315.30691290  .00003108  00000+0  21332-3 0  9996",
    "TLE_LINE2": "2 50180  53.2135  60.5710 0002008  87.7076 272.4146 15.08834976218771",
    "COMMENT": "Grouped by shell and plane from TLE"
  },
  {
    "OBJECT_NAME": "STARLINK-3285",
    "OBJECT_ID": "21125AB",
    "EPOCH": "2025-11-11T07:11:21.282432",
    "MEAN_MOTION": 15.08843373,
    "ECCENTRICITY": 0.0001523,
    "INCLINATION": 53.2167,
    "RA_OF_ASC_NODE": 60.6038,
    "ARG_OF_PERICENTER": 88.2451,
    "MEAN_ANOMALY": 271.8716,
    "EPHEMERIS_TYPE": 0,
    "CLASSIFICATION_TYPE": "U",
    "NORAD_CAT_ID": 50181,
    "ELEMENT_SET_NO": 999,
    "REV_AT_EPOCH": 21873,
    "BSTAR": 4.456e-05,
    "MEAN_MOTION_DOT": 4.21e-06,
    "MEAN_MOTION_DDOT": 0.0,
    "TLE_LINE1": "1 50181U 21125AB  25315.29955188  .00000421  00000+0  44560-4 0  9998",
    "TLE_LINE2": "2 50181  53.2167  60.6038 0001523  88.2451 271.8716 15.08843373218738",
    "COMMENT": "Grouped by shell and plane from TLE"
  },
  {
    "OBJECT_NAME": "STARLINK-3277",
    "OBJECT_ID": "21125AC",
    "EPOCH": "2025-11-11T06:38:10.124448",
    "MEAN_MOTION": 15.08835686,
    "ECCENTRICITY": 0.0001581,
    "INCLINATION": 53.2195,
    "RA_OF_ASC_NODE": 60.5421,
    "ARG_OF_PERICENTER": 95.333,
    "MEAN_ANOMALY": 264.7843,
    "EPHEMERIS_TYPE": 0,
    "CLASSIFICATION_TYPE": "U",
    "NORAD_CAT_ID": 50182,
    "ELEMENT_SET_NO": 999,
    "REV_AT_EPOCH": 21876,
    "BSTAR": 5.384400000000001e-05,
    "MEAN_MOTION_DOT": 5.69e-06,
    "MEAN_MOTION_DDOT": 0.0,
    "TLE_LINE1": "1 50182U 21125AC  25315.27650607  .00000569  00000+0  53844-4 0  9993",
    "TLE_LINE2": "2 50182  53.2195  60.5421 0001581  95.3330 264.7843 15.08835686218767",
    "COMMENT": "Grouped by shell and plane from TLE"
  },
  {
    "OBJECT_NAME": "STARLINK-3281",
    "OBJECT_ID": "21125AD",
    "EPOCH": "2025-11-11T07:04:40.750176",
    "MEAN_MOTION": 15.08847196,
    "ECCENTRICITY": 0.0002032,
    "INCLINATION": 53.2152,
    "RA_OF_ASC_NODE": 60.6132,
    "ARG_OF_PERICENTER": 89.761,
    "MEAN_ANOMALY": 270.3615,
    "EPHEMERIS_TYPE": 0,
    "CLASSIFICATION_TYPE": "U",
    "NORAD_CAT_ID": 50183,
    "ELEMENT_SET_NO": 999,
    "REV_AT_EPOCH": 21877,
    "BSTAR": 0.00010480000000000001,
    "MEAN_MOTION_DOT": 1.38e-05,
    "MEAN_MOTION_DDOT": 0.0,
    "TLE_LINE1": "1 50183U 21125AD  25315.29491609  .00001380  00000+0  10480-3 0  9991",
    "TLE_LINE2": "2 50183  53.2152  60.6132 0002032  89.7610 270.3615 15.08847196218771",
    "COMMENT": "Grouped by shell and plane from TLE"
  }
]